ZHONGXING-10R           
1 63075U 25036A   26194.79680546 -.00000357  00000+0  00000+0 0  9998
2 63075   0.0092 275.1041 0004148 232.4565 181.4666  1.00272846  5229
TJS-15                  
1 63157U 25045A   26194.74757417 -.00000269  00000+0  00000+0 0  9998
2 63157   0.3063  85.6357 0003351 295.0634 274.4075  1.00269569  5025
TIANLIAN 2-04           
1 63361U 25062A   26194.88554817 -.00000136  00000+0  00000+0 0  9991
2 63361   4.3079 274.0558 0031624   9.3169  47.1970  1.00270747  4874
TJS-16                  
1 63397U 25064A   26194.76445146 -.00000111  00000+0  00000+0 0  9996
2 63397   1.1643  81.2920 0002489 290.3397 355.8257  1.00270806  4657
TJS-17                  
1 63524U 25073A   26194.76226279 -.00000076  00000+0  00000+0 0  9992
2 63524   1.1304  82.4646 0000992 303.0552 345.0327  1.00270523  4557
TIANLIAN 2-05           
1 63662U 25084A   26194.77891383  .00000124  00000+0  00000+0 0  9995
2 63662   4.3857 279.5306 0002569 153.8442 159.0452  1.00270720  4642
TJS-19                  
1 63924U 25097A   26194.73157992 -.00000278  00000+0  00000+0 0  9998
2 63924   3.2430 317.8726 0003966 245.4291 132.8569  1.00266719  4418
CHINASAT 3B             
1 64062U 25106A   26194.80798552 -.00000050  00000+0  00000+0 0  9992
2 64062   0.0233 139.4730 0003909   5.2216 245.1826  1.00271857  4320
SXM-10                  
1 64290U 25122A   26194.60932681 -.00000021  00000+0  00000+0 0  9992
2 64290   0.0157  36.2449 0001828 322.9748  35.4661  1.00271903  3942
COSMOS 2589             
1 64467U 25131A   26194.72299990 -.00000296  00000+0  00000+0 0  9994
2 64467   0.0273 122.3287 0000927  83.5150  84.0384  1.00273922  3822
CHINASAT 9C             
1 64470U 25132A   26194.88030905  .00000000  00000+0  00000+0 0  9997
2 64470   0.0155  61.1694 0002923  53.9873 225.7177  1.00267502  4415
MTG-S1                  
1 64723U 25143A   26194.84609470 -.00000012  00000+0  00000+0 0  9999
2 64723   0.5850 344.7832 0003484 261.8262 349.2858  1.00273221  3683
DROR 1                  
1 64784U 25148A   26194.85184073 -.00000040  00000+0  00000+0 0  9990
2 64784   0.0485 260.6619 0001975 134.9500 198.7682  1.00271688  3560
SHIYAN-29               
1 65486U 25196A   26194.59516620 -.00000285  00000+0  00000+0 0  9992
2 65486  28.8495  18.2022 0013367 177.9193  44.8968  1.00276730  3142
NUSANTARA LIMA (NUSANT*)
1 65588U 25205A   26194.22680622 -.00000360  00000+0  00000+0 0  9994
2 65588   0.0048 108.0133 0000460  92.2195 285.3677  1.00270259  2983
TJS-20                  
1 66142U 25238A   26194.85852221  .00000025  00000+0  00000+0 0  9999
2 66142   5.4113 299.4463 0004283 181.7914 182.0051  1.00274397  2608
CMS-03 (GSAT-7R)        
1 66311U 25249B   26194.87565464 -.00000082  00000+0  00000+0 0  9995
2 66311   0.0301 275.0253 0001451 164.2446 241.6822  1.00271182  2611
VIASAT-3 F2             
1 66454U 25261A   26194.47411872 -.00000237  00000+0  00000+0 0  9998
2 66454   0.0059 252.2572 0000739 334.9101 155.8962  1.00270985  3052
SHIJIAN-28 (SJ-28)      
1 66549U 25277A   26194.78100559 -.00000360  00000+0  00000+0 0  9998
2 66549   4.4713 271.7110 0001182  22.6244  35.2978  1.00267516  2422
TJS-22                  
1 66990U 25290A   26193.80754925 -.00000005  00000+0  00000+0 0  9993
2 66990   1.4677 286.9097 0002691 318.9700  42.0235  1.00269739  2289
TJS-23                  
1 67226U 25306A   26194.52956463  .00000021  00000+0  00000+0 0  9992
2 67226   5.5291 297.3485 0005005 193.5330 166.7139  1.00275110  2157
FENGYUN 4C              
1 67246U 25312A   26194.65865775 -.00000328  00000+0  00000+0 0  9991
2 67246   0.0385 175.3203 0000658  48.7481  77.5697  1.00269440  2048
SHIJIAN-29A (SJ-29A)    
1 67302U 25315A   26194.71810338 -.00000075  00000+0  00000+0 0  9998
2 67302   3.4630  94.4731 0004858  52.7733 116.0145  1.00272287  1880
SHIJIAN-29B (SJ-29B)    
1 67403U 25315C   26194.71810338 -.00000076  00000+0  00000+0 0  9991
2 67403   3.4620  94.4660 0004958  54.1372 114.7040  1.00272585  1956
ELEKTRO-L 5             
1 67756U 26028A   26193.98070335 -.00000099  00000+0  00000+0 0  9992
2 67756   0.2103 323.5750 0002054 175.8596 220.5701  1.00271957  1512
JAM-E JAM 1             
1 67757U 26028B   26194.78151343  .00000151  00000+0  00000+0 0  9999
2 67757   0.2091 312.1530 0001722 321.1936 333.6666  1.00273069  1381
ECHOSTAR 25             
1 68126U 26045A   26194.68162455  .00000000  00000+0  00000+0 0  9997
2 68126   0.0260  63.7557 0001640  46.8586 316.3406  1.00269024  1259
TJS-24                  
1 69235U 26116A   26194.88960416 -.00000236  00000+0  00000+0 0  9995
2 69235   0.0742  95.1728 0000376 129.2353 117.9048  1.00270070   493
